IRIDIUM 126             
1 42809U 17039G   24184.85854587  .00000506  00000+0  17360-3 0  9992
2 42809  86.3967 292.1480 0002035 100.1973 259.9452 14.34221709367567
IRIDIUM 124             
1 42810U 17039H   24185.49949657  .00000567  00000+0  16263-3 0  9996
2 42810  86.4495 228.6120 0002675  91.3999 268.7508 14.43283858372176
IRIDIUM 128             
1 42811U 17039J   24185.47720628  .00000157  00000+0  49105-4 0  9997
2 42811  86.3977 323.4190 0002334 100.2339 259.9121 14.34214386367685
IRIDIUM 121             
1 42812U 17039K   24185.57526637  .00000017  00000+0 -95641-6 0  9997
2 42812  86.3968 291.8712 0002340  95.1533 264.9929 14.34215269367660
IRIDIUM 122             
1 42957U 17061C   24185.54063221  .00000414  00000+0  14085-3 0  9994
2 42957  86.3978 323.4268 0002098  96.9323 263.2111 14.34218311352496
IRIDIUM 129             
1 42958U 17061D   24185.42646093  .00000440  00000+0  15004-3 0  9997
2 42958  86.3979 323.5341 0002072 100.4658 259.6771 14.34219957352493
